STARLINK-32921          
1 62920U 25027P   26002.71344721  .00039879  00000+0  14500-2 0  9991
2 62920  43.0021 141.3360 0001782 270.0254  90.0394 15.27599026 51453
STARLINK-32917          
1 62921U 25027Q   26002.66219337  .00057319  00000+0  20758-2 0  9991
2 62921  43.0003 141.8077 0001103 243.3427 116.7312 15.27587977 51443
STARLINK-32916          
1 62922U 25027R   26002.65192455  .00057037  00000+0  20659-2 0  9999
2 62922  43.0029 141.7290 0001690 274.7071  85.3587 15.27585815 51446
STARLINK-32905          
1 62923U 25027S   26003.06607259  .00028395  00000+0  10375-2 0  9998
2 62923  42.9991 139.6826 0000935 308.0421  52.0346 15.27577674 51500
STARLINK-32871          
1 62924U 25027T   26002.65834129  .00036116  00000+0  13147-2 0  9991
2 62924  42.9993 141.7744 0001646 269.4134  90.6529 15.27600636 51446
STARLINK-32920          
1 62925U 25027U   26002.65449162  .00045259  00000+0  16435-2 0  9992
2 62925  43.0008 141.7466 0001283 285.4117  74.6593 15.27592580 51444
STARLINK-32922          
1 62926U 25027V   26003.06221990  .00034195  00000+0  12450-2 0  9996
2 62926  43.0042 139.6477 0002833 271.5644  88.4884 15.27615584 51507
STARLINK-32891          
1 62927U 25027W   26003.06865232  .00045426  00000+0  16489-2 0  9995
2 62927  42.9963 139.6977 0001052 304.6507  55.4245 15.27604581 51624
KINEIS-2C               
1 62929U 25028B   26003.14428234  .00002878  00000+0  46318-3 0  9993
2 62929  98.0221  59.1443 0002304 128.2015 231.9400 14.72289650 48326
KINEIS-2D               
1 62930U 25028C   26003.11495256  .00003960  00000+0  59527-3 0  9999
2 62930  97.9530  58.6152 0003636  36.9957 323.1502 14.75050549 48377
KINEIS-2E               
1 62931U 25028D   26003.10130945  .00003257  00000+0  47516-3 0  9994
2 62931  97.9194  58.1138 0001105  69.0620 291.0708 14.76462838 48411
KINEIS-2A               
1 62932U 25028E   26003.09101398  .00002197  00000+0  35881-3 0  9997
2 62932  98.0234  59.2445 0003783 354.1911   5.9252 14.71886548 48315
KINEIS-2B               
1 62934U 25028G   26003.15633839  .00002949  00000+0  46802-3 0  9996
2 62934  97.9911  58.8740 0002840 338.3499  21.7588 14.72885546 48369
STARLINK-32728          
1 62948U 25029A   26003.19838809  .00040806  00000+0  13819-2 0  9995
2 62948  53.1585 174.3130 0001611  79.4315 280.6867 15.30209899 51363
STARLINK-32857          
1 62949U 25029B   26002.79066999  .00019371  00000+0  66438-3 0  9993
2 62949  53.1583 176.0454 0001244  71.1690 288.9446 15.30203781 51309
STARLINK-32850          
1 62950U 25029C   26002.76279955  .00027266  00000+0  92999-3 0  9993
2 62950  53.1577 178.7016 0000681  79.2984 280.8093 15.30177566 51238
STARLINK-32875          
1 62951U 25029D   26002.75173422  .00030318  00000+0  10314-2 0  9997
2 62951  53.1572 176.5042 0000820  95.9087 264.2007 15.30204565 51267
STARLINK-32865          
1 62952U 25029E   26002.75648464  .00041109  00000+0  13919-2 0  9995
2 62952  53.1581 178.6626 0000840  39.5550 320.5512 15.30212002 51239
STARLINK-32884          
1 62953U 25029F   26003.20577270  .00033336  00000+0  11314-2 0  9993
2 62953  53.1581 174.3590 0001185  83.9474 276.1662 15.30234749 51339
STARLINK-32874          
1 62954U 25029G   26003.19205538  .00047985  00000+0  16207-2 0  9998
2 62954  53.1583 174.2698 0001613  88.4118 271.7067 15.30223273 51331
STARLINK-32880          
1 62955U 25029H   26003.21263301  .00026205  00000+0  89341-3 0  9996
2 62955  53.1597 176.5277 0001194  89.8731 270.2406 15.30213145 51300
STARLINK-32815          
1 62956U 25029J   26003.20366483  .00059771  00000+0  20129-2 0  9993
2 62956  53.1583 174.3460 0001208  80.8294 279.2843 15.30218383 51333
STARLINK-32879          
1 62957U 25029K   26002.77970206  .00056187  00000+0  18912-2 0  9994
2 62957  53.1562 178.8053 0000701  51.7125 308.3939 15.30262731 51229
STARLINK-32885          
1 62958U 25029L   26003.20471954  .00047975  00000+0  16212-2 0  9996
2 62958  53.1585 174.3493 0001308  84.1374 275.9776 15.30205225 51328
STARLINK-32896          
1 62959U 25029M   26002.79236264  .00035457  00000+0  12036-2 0  9995
2 62959  53.1577 178.8826 0001022  85.0037 275.1081 15.30199064 51221
STARLINK-32877          
1 62960U 25029N   26002.91666432  .00035855  00000+0  12165-2 0  9990
2 62960  53.1564 178.2378 0001676  30.5233 329.5865 15.30208960 51223
STARLINK-32889          
1 62961U 25029P   26002.91982227  .00042998  00000+0  14563-2 0  9994
2 62961  53.1570 178.2604 0001006 105.7832 254.3280 15.30182046 51244
STARLINK-32858          
1 62962U 25029Q   26003.18732828  .00046751  00000+0  15819-2 0  9991
2 62962  53.1584 176.3744 0001183  83.1010 277.0126 15.30175043 51270
STARLINK-32882          
1 62963U 25029R   26003.20682842  .00063125  00000+0  21221-2 0  9993
2 62963  53.1585 174.3620 0001085  84.9451 275.1673 15.30250191 51322
STARLINK-32887          
1 62964U 25029S   26003.20155272  .00064268  00000+0  21617-2 0  9994
2 62964  53.1585 174.3311 0001211  77.1554 282.9582 15.30223802 51323
STARLINK-32836          
1 62965U 25029T   26003.19733211  .00044760  00000+0  15140-2 0  9997
2 62965  53.1590 174.3019 0001433  82.7135 277.4028 15.30206447 51328
STARLINK-32888          
1 62966U 25029U   26002.71755618  .00037692  00000+0  12783-2 0  9996
2 62966  53.1573 179.1402 0000872  54.3353 305.7729 15.30201076 51216
STARLINK-32897          
1 62967U 25029V   26003.20735797  .00044792  00000+0  15143-2 0  9990
2 62967  53.1581 176.4918 0001549  87.0706 273.0472 15.30221837 51292
STARLINK-32863          
1 62968U 25029W   26002.77337032  .00039586  00000+0  13414-2 0  9996
2 62968  53.1568 178.7597 0000852  70.6178 289.4915 15.30203063 50364
STARLINK-32894          
1 62969U 25029X   26003.20102625  .00048716  00000+0  16449-2 0  9990
2 62969  53.1584 176.4532 0001456  84.3160 275.8007 15.30224893 51299
STARLINK-32826          
1 62970U 25029Y   26003.19469287  .00042728  00000+0  14456-2 0  9993
2 62970  53.1577 176.4128 0001572  85.4259 274.6922 15.30220732 51295
HULIANWANG DIGUI-11     
1 62971U 25030A   26003.29202063 -.00000088  00000+0  76648-4 0  9991
2 62971  50.0004 107.2661 0000620  76.8021 283.2920 13.29332717 43923
HULIANWANG DIGUI-12     
1 62972U 25030B   26003.22517615 -.00000082  00000+0  90251-4 0  9997
2 62972  50.0020 107.6186 0000544  63.5373 296.5555 13.29334856 43912
HULIANWANG DIGUI-13     
1 62973U 25030C   26003.28364759 -.00000090  00000+0  74073-4 0  9996
2 62973  50.0023 107.2722 0000450  86.6174 273.4750 13.29333269 43928
HULIANWANG DIGUI-14     
1 62974U 25030D   26003.25861960 -.00000092  00000+0  68267-4 0  9990
2 62974  50.0029 107.1577 0000423  76.0198 284.0721 13.29332434 43920
HULIANWANG DIGUI-15     
1 62975U 25030E   26003.27531771 -.00000076  00000+0  10379-3 0  9999
2 62975  50.0024 107.2312 0000537  82.9358 277.1576 13.29332828 43922
HULIANWANG DIGUI-16     
1 62976U 25030F   26003.25024724 -.00000094  00000+0  65395-4 0  9992
2 62976  50.0046 107.1592 0000407  72.1169 287.9748 13.29333315 43925
HULIANWANG DIGUI-17     
1 62977U 25030G   26003.24191340 -.00000083  00000+0  88145-4 0  9997
2 62977  50.0059 107.1488 0000487  78.2614 281.8312 13.29333027 43924
HULIANWANG DIGUI-18     
1 62978U 25030H   26003.30872173 -.00000088  00000+0  78181-4 0  9999
2 62978  50.0064 106.8440 0000505  74.0230 286.0698 13.29333158 43934
HULIANWANG DIGUI-19     
1 62979U 25030J   26003.26690449 -.00000089  00000+0  75598-4 0  9999
2 62979  50.0048 107.2500 0000425  74.4867 285.6052 13.29336392 43921
STARLINK-11543 [DTC]    
1 62981U 25031A   26003.11892795  .00434819  00000+0  32058-2 0  9998
2 62981  42.9997  36.3595 0001762 249.4039 110.6640 15.70930557 52430
STARLINK-11458 [DTC]    
1 62982U 25031B   26003.13485553  .00397985  00000+0  29327-2 0  9998
2 62982  42.9990  36.4865 0001651 223.4821 136.5917 15.71052408 52438
STARLINK-11417 [DTC]    
1 62983U 25031C   26003.10843809  .00438238  00000+0  32284-2 0  9991
2 62983  42.9992  37.1694 0001517 259.2250 100.8447 15.70939586 52424
STARLINK-11544 [DTC]    
1 62984U 25031D   26003.12954597  .00449922  00000+0  33089-2 0  9997
2 62984  42.9997  36.4438 0001589 256.2333 103.8358 15.70945009 52405
STARLINK-11582 [DTC]    
1 62985U 25031E   26003.08188950  .00355408  00000+0  26397-2 0  9994
2 62985  42.9975  36.9532 0001543 184.8132 175.2721 15.70991818 52423
STARLINK-11571 [DTC]    
1 62986U 25031F   26003.11361949  .00358641  00000+0  26712-2 0  9993
2 62986  42.9994  36.3146 0001397 251.4394 108.6322 15.70914557 52431
STARLINK-11539 [DTC]    
1 62987U 25031G   26003.14016495  .00422877  00000+0  31112-2 0  9993
2 62987  42.9989  36.5284 0001884 253.8046 106.2615 15.71016296 52435
STARLINK-11542 [DTC]    
1 62988U 25031H   26003.12423705  .00416575  00000+0  30782-2 0  9998
2 62988  43.0000  36.3994 0001403 261.3538  98.7171 15.70931277 52408
STARLINK-11573 [DTC]    
1 62989U 25031J   26003.09250378  .00529769  00000+0  38279-2 0  9998
2 62989  42.9994  37.0383 0001904 242.7891 117.2782 15.71130717 52394
STARLINK-11572 [DTC]    
1 62990U 25031K   26003.13045759  .00260704  00000+0  19683-2 0  9999
2 62990  42.9993  36.4486 0001487 256.1174 103.9528 15.70886711 52437
STARLINK-11583 [DTC]    
1 62991U 25031L   26003.09781790  .00003687  00000+0  32240-4 0  9998
2 62991  43.0009  37.0799 0001941 271.8953  88.1692 15.70821408 52434
STARLINK-11570 [DTC]    
1 62992U 25031M   26003.10312872  .00267436  00000+0  20167-2 0  9999
2 62992  42.9989  37.1222 0001319 268.6941  91.3776 15.70894318 52419
STARLINK-11576 [DTC]    
1 62993U 25031N   26003.08719909  .00309365  00000+0  23100-2 0  9997
2 62993  42.9998  36.9939 0001289 171.6296 188.4593 15.71002794 52419
STARLINK-32899          
1 62994U 25031P   26003.12582992  .00053434  00000+0  19360-2 0  9999
2 62994  42.9999 153.9961 0000106  24.1214 335.9642 15.27602298 51065
